0 COSMOS 839 DEB
1 18606U 76067BP  13292.38146045 -.00000319  00000-0 -86680-3 0  6808
2 18606 065.8320 276.7741 0649815 245.1022 188.8766 12.44865923238371
